HST                     
1 20580U 90037B   26186.72275928  .00008052  00000+0  25363-3 0  9995
2 20580  28.4737 313.8746 0001801  10.5511 349.5122 15.30983298791419
POLAR                   
1 23802U 96013A   26186.52270519  .00000200  00000+0  00000+0 0  9998
2 23802  79.8773 226.8349 6488923 208.4497  91.0654  1.29846108145099
SWAS                    
1 25560U 98071A   26187.16441579  .00002626  00000+0  16890-3 0  9996
2 25560  69.8940 178.5760 0008191 240.2867 119.7482 15.09713652500138
CXO                     
1 25867U 99040B   26190.53249962  .00000720  00000+0  00000+0 0  9995
2 25867  56.4883 116.0416 7806468 310.0470   0.3268  0.37805019 17401
XMM-NEWTON              
1 25989U 99066A   26189.29225867  .00000112  00000+0  00000+0 0  9992
2 25989  64.3787 282.7174 4670357  64.5370   0.0317  0.50122523 23116
TERRA                   
1 25994U 99068A   26187.26175208  .00000407  00000+0  91760-4 0  9993
2 25994  97.9445 236.0508 0002973 140.6672 284.5270 14.61118907412395
CLUSTER II-FM7 (SAMBA)  
1 26410U 00041A   26188.21797159  .00007566  00000+0  00000+0 0  9996
2 26410 149.8716  54.4790 9079263 271.8893 359.5006  0.44837774 20390
CLUSTER II-FM8 (TANGO)  
1 26464U 00045B   26186.44804170  .00007110  00000+0  00000+0 0  9999
2 26464 150.0949  55.2192 9081119 272.4711   2.3437  0.44414475 20395
ODIN                    
1 26702U 01007A   26187.10029655  .00321557  00000+0  13609-2 0  9990
2 26702  97.3757 229.3567 0005549 141.2554 218.9115 15.84535874392388
TIMED                   
1 26998U 01055B   26187.20966811  .00001172  00000+0  10986-3 0  9999
2 26998  74.0660 196.7157 0001974 309.8666  50.2345 14.95331780333665
CORIOLIS                
1 27640U 03001A   26187.01132412  .00000101  00000+0  68060-4 0  9996
2 27640  98.7129 193.6088 0014503 154.3624 205.8275 14.19950030216897
SORCE                   
1 27651U 03004A   26186.40280946  .00004159  00000+0  30702-3 0  9997
2 27651  39.9893 157.7421 0017605 187.3590 172.6947 15.03805351274643
MOST                    
1 27843U 03031D   26187.00720232  .00000072  00000+0  53214-4 0  9998
2 27843  98.7046 194.4704 0009535 191.6129 168.4830 14.21326455193387
SCISAT 1                
1 27858U 03036A   26187.26886650  .00000760  00000+0  10162-3 0  9992
2 27858  73.9298 133.4301 0007830 202.8805 157.2024 14.81471465234278
SWIFT                   
1 28485U 04047A   26186.87627305  .00067578  00000+0  51887-3 0  9997
2 28485  20.5532  40.5435 0000895 245.4092 114.6261 15.70288873189801
HINODE (SOLAR-B)        
1 29479U 06041A   26187.05775509  .00000798  00000+0  14541-3 0  9995
2 29479  98.0546 202.9320 0016380 224.6513 135.3374 14.68650201 57645
SHIJIAN-6 02A (SJ-6 02A)
1 29505U 06046A   26187.28572823  .00005070  00000+0  25871-3 0  9995
2 29505  97.6346 228.4973 0004752  83.7595 276.4179 15.17177090 75161
SHIJIAN-6 02B (SJ-6 02B)
1 29506U 06046B   26187.27379484  .00002020  00000+0  16093-3 0  9991
2 29506  97.7148 216.2148 0014486   5.4808 354.6572 15.01427505 73600
FGRST (GLAST)           
1 33053U 08029A   26187.02035084  .00003711  00000+0  13510-3 0  9993
2 33053  25.5823  73.7030 0008011 185.9397 174.1047 15.24039936998713
SDO                     
1 36395U 10005A   26187.29985258 -.00000073  00000+0  00000+0 0  9993
2 36395  34.6882  86.0538 0001597  54.6395 149.2448  1.00269873 60254
CRYOSAT 2               
1 36508U 10013A   26187.24130808  .00000170  00000+0  41568-4 0  9992
2 36508  92.0360 281.9337 0002256  97.2930 262.8534 14.51896301860846
X-SAT                   
1 37389U 11015C   26187.25114074  .00000487  00000+0  22461-3 0  9992
2 37389  98.3524 163.3675 0012858 289.7424  70.2369 14.25213419790391
GCOM-W1 (SHIZUKU)       
1 38337U 12025A   26187.27245691  .00000510  00000+0  12324-3 0  9994
2 38337  98.2023 127.5395 0001442  65.8909  60.6985 14.57143058751814
NUSTAR                  
1 38358U 12031A   26187.33337963  .00007479  00000+0  40603-3 0  9997
2 38358   6.0253 250.5158 0007481  29.1855 305.9723 15.08995856  1300
NEOSSAT                 
1 39089U 13009D   26186.46735308  .00000222  00000+0  91310-4 0  9994
2 39089  98.4185   6.0659 0010818 185.7712 174.3351 14.35833373699368
BRITE-AUSTRIA           
1 39091U 13009F   26186.94444142  .00000200  00000+0  82602-4 0  9993
2 39091  98.4004   5.9166 0010188 177.3840 182.7402 14.36549906699740
IRIS                    
1 39197U 13033A   26187.15483831  .00001133  00000+0  13576-3 0  9998
2 39197  97.9322  26.3721 0022964 256.3074 103.5584 14.85924438703198
HISAKI (SPRINT-A)       
1 39253U 13049A   26187.20378117  .00000106  00000+0  53314-4 0  9998
2 39253  29.7188 123.3254 0136905 171.0277 189.2780 13.55546177634000
CASSIOPE                
1 39265U 13055A   26187.24194783  .00040012 -38832-6  43037-3 0  9999
2 39265  80.9127  43.5500 0285352 358.2289   1.7901 15.26944141670573
STSAT-3                 
1 39422U 13066G   26187.22232193  .00003403  00000+0  25817-3 0  9999
2 39422  97.6209 156.8049 0009148 342.2125  17.8778 15.02863062687067
SWARM B                 
1 39451U 13067A   26187.18403704  .00003832  00000+0  13629-3 0  9999
2 39451  87.7457 336.5450 0002662  80.3990 279.7560 15.28676967686141
