OBJECT_NAME,OBJECT_ID,EPOCH,MEAN_MOTION,ECCENTRICITY,INCLINATION,RA_OF_ASC_NODE,ARG_OF_PERICENTER,MEAN_ANOMALY,EPHEMERIS_TYPE,CLASSIFICATION_TYPE,NORAD_CAT_ID,ELEMENT_SET_NO,REV_AT_EPOCH,BSTAR,MEAN_MOTION_DOT,MEAN_MOTION_DDOT
HST,1990-037B,2026-07-05T17:20:46.401792,15.30983298,.00018012,28.4737,313.8746,10.5511,349.5122,0,U,20580,999,79141,.25363464E-3,.8052E-4,0
POLAR,1996-013A,2026-07-05T12:32:41.728416,1.29846108,.6488923,79.8773,226.8349,208.4497,91.0654,0,U,23802,999,14509,0,.2E-5,0
SWAS,1998-071A,2026-07-06T03:56:45.524256,15.09713652,.00081917,69.8940,178.5760,240.2867,119.7482,0,U,25560,999,50013,.16890254E-3,.2626E-4,0
CXO,1999-040B,2026-07-09T12:46:47.967168,0.37805019,.78064689,56.4883,116.0416,310.0470,0.3268,0,U,25867,999,1740,0,.72E-5,0
XMM-NEWTON,1999-066A,2026-07-08T07:00:51.149088,0.50122523,.46703572,64.3787,282.7174,64.5370,0.0317,0,U,25989,999,2311,0,.112E-5,0
TERRA,1999-068A,2026-07-06T06:16:55.379712,14.61118907,.00029739,97.9445,236.0508,140.6672,284.5270,0,U,25994,999,41239,.91760031E-4,.407E-5,0
CLUSTER II-FM7 (SAMBA),2000-041A,2026-07-07T05:13:52.745376,0.44837774,.9079263,149.8716,54.4790,271.8893,359.5006,0,U,26410,999,2039,0,.7566E-4,0
CLUSTER II-FM8 (TANGO),2000-045B,2026-07-05T10:45:10.802880,0.44414475,.90811194,150.0949,55.2192,272.4711,2.3437,0,U,26464,999,2039,0,.711E-4,0
ODIN,2001-007A,2026-07-06T02:24:25.621920,15.84535874,.00055493,97.3757,229.3567,141.2554,218.9115,0,U,26702,999,39238,.13609455E-2,.321557E-2,0
TIMED,2001-055B,2026-07-06T05:01:55.324704,14.95331780,.00019747,74.0660,196.7157,309.8666,50.2345,0,U,26998,999,33366,.10985629E-3,.1172E-4,0
CORIOLIS,2003-001A,2026-07-06T00:16:18.403968,14.19950030,.00145034,98.7129,193.6088,154.3624,205.8275,0,U,27640,999,21689,.68060195E-4,.101E-5,0
SORCE,2003-004A,2026-07-05T09:40:02.737344,15.03805351,.00176052,39.9893,157.7421,187.3590,172.6947,0,U,27651,999,27464,.3070203E-3,.4159E-4,0
MOST,2003-031D,2026-07-06T00:10:22.280448,14.21326455,.00095352,98.7046,194.4704,191.6129,168.4830,0,U,27843,999,19338,.53214404E-4,.72E-6,0
SCISAT 1,2003-036A,2026-07-06T06:27:10.065600,14.81471465,.00078307,73.9298,133.4301,202.8805,157.2024,0,U,27858,999,23427,.10161702E-3,.76E-5,0
SWIFT,2004-047A,2026-07-05T21:01:49.991520,15.70288873,.00008953,20.5532,40.5435,245.4092,114.6261,0,U,28485,999,18980,.51887315E-3,.67578E-3,0
HINODE (SOLAR-B),2006-041A,2026-07-06T01:23:10.039776,14.68650201,.00163809,98.0546,202.9320,224.6513,135.3374,0,U,29479,999,5764,.14541022E-3,.798E-5,0
SHIJIAN-6 02A (SJ-6 02A),2006-046A,2026-07-06T06:51:26.919072,15.17177090,.00047528,97.6346,228.4973,83.7595,276.4179,0,U,29505,999,7516,.2587071E-3,.507E-4,0
SHIJIAN-6 02B (SJ-6 02B),2006-046B,2026-07-06T06:34:15.874176,15.01427505,.0014486,97.7148,216.2148,5.4808,354.6572,0,U,29506,999,7360,.16093433E-3,.202E-4,0
FGRST (GLAST),2008-029A,2026-07-06T00:29:18.312576,15.24039936,.00080114,25.5823,73.7030,185.9397,174.1047,0,U,33053,999,99871,.13510078E-3,.3711E-4,0
SDO,2010-005A,2026-07-06T07:11:47.262912,1.00269873,.00015973,34.6882,86.0538,54.6395,149.2448,0,U,36395,999,6025,0,-.73E-6,0
CRYOSAT 2,2010-013A,2026-07-06T05:47:29.018112,14.51896301,.00022566,92.0360,281.9337,97.2930,262.8534,0,U,36508,999,86084,.41568071E-4,.17E-5,0
X-SAT,2011-015C,2026-07-06T06:01:38.559936,14.25213419,.00128587,98.3524,163.3675,289.7424,70.2369,0,U,37389,999,79039,.22460894E-3,.487E-5,0
GCOM-W1 (SHIZUKU),2012-025A,2026-07-06T06:32:20.277024,14.57143058,.00014424,98.2023,127.5395,65.8909,60.6985,0,U,38337,999,75181,.12323987E-3,.51E-5,0
NUSTAR,2012-031A,2026-07-06T08:00:04.000032,15.08995856,.00074813,6.0253,250.5158,29.1855,305.9723,0,U,38358,999,130,.40602503E-3,.7479E-4,0
NEOSSAT,2013-009D,2026-07-05T11:12:59.306112,14.35833373,.0010818,98.4185,6.0659,185.7712,174.3351,0,U,39089,999,69936,.9131E-4,.222E-5,0
BRITE-AUSTRIA,2013-009F,2026-07-05T22:39:59.738688,14.36549906,.00101887,98.4004,5.9166,177.3840,182.7402,0,U,39091,999,69974,.82602154E-4,.2E-5,0
IRIS,2013-033A,2026-07-06T03:42:58.029984,14.85924438,.00229645,97.9322,26.3721,256.3074,103.5584,0,U,39197,999,70319,.1357622E-3,.1133E-4,0
HISAKI (SPRINT-A),2013-049A,2026-07-06T04:53:26.693088,13.55546177,.01369056,29.7188,123.3254,171.0277,189.2780,0,U,39253,999,63400,.53314216E-4,.106E-5,0
CASSIOPE,2013-055A,2026-07-06T05:48:24.292512,15.26944141,.02853527,80.9127,43.5500,358.2289,1.7901,0,U,39265,999,67057,.4303661E-3,.40012E-3,-.388319E-6
STSAT-3,2013-066G,2026-07-06T05:20:08.614752,15.02863062,.00091487,97.6209,156.8049,342.2125,17.8778,0,U,39422,999,68706,.25816843E-3,.3403E-4,0
SWARM B,2013-067A,2026-07-06T04:25:00.800256,15.28676967,.0002662,87.7457,336.5450,80.3990,279.7560,0,U,39451,999,68614,.13628528E-3,.3832E-4,0
